{
  "type": "FeatureCollection",
  "features": [
    {
      "type": "Feature",
      "properties": {
        "norad_id": 30090,
        "name": "FENGYUN 1C DEB",
        "group": "fengyun-1c-debris",
        "lat": 8.892017203832813,
        "lon": -5.518499651565137,
        "alt_km": 799.046171912415,
        "timestamp": "2025-12-24T22:42:22.304976+00:00",
        "meta_object_name": "FENGYUN 1C DEB",
        "meta_object_id": "1999-025QT",
        "meta_epoch": "2025-12-23T23:08:32.223840",
        "meta_mean_motion": 14.29049716,
        "meta_eccentricity": 0.0058167,
        "meta_inclination": 99.4091,
        "meta_ra_of_asc_node": 171.9362,
        "meta_arg_of_pericenter": 79.9544,
        "meta_mean_anomaly": 81.9573,
        "meta_ephemeris_type": 0,
        "meta_classification_type": "U",
        "meta_norad_cat_id": 30090,
        "meta_element_set_no": 999,
        "meta_rev_at_epoch": 98430,
        "meta_bstar": 0.00033772,
        "meta_mean_motion_dot": 8.21e-06,
        "meta_mean_motion_ddot": 0,
        "tle_line1": "1 30090U 99025QT  25357.96426185  .00000821  00000+0  33772-3 0  9995",
        "tle_line2": "2 30090  99.4091 171.9362 0058167  79.9544  81.9573 14.29049716984300"
      },
      "geometry": {
        "type": "Point",
        "coordinates": [
          -5.518499651565137,
          8.892017203832813
        ]
      }
    },
    {
      "type": "Feature",
      "properties": {
        "norad_id": 30092,
        "name": "FENGYUN 1C DEB",
        "group": "fengyun-1c-debris",
        "lat": -32.8714827338444,
        "lon": -7.1307355095638005,
        "alt_km": 708.173322748863,
        "timestamp": "2025-12-24T22:42:22.304986+00:00",
        "meta_object_name": "FENGYUN 1C DEB",
        "meta_object_id": "1999-025QV",
        "meta_epoch": "2025-12-24T00:37:38.211744",
        "meta_mean_motion": 14.39177492,
        "meta_eccentricity": 0.00828083,
        "meta_inclination": 98.9231,
        "meta_ra_of_asc_node": 177.7396,
        "meta_arg_of_pericenter": 216.8578,
        "meta_mean_anomaly": 272.7693,
        "meta_ephemeris_type": 0,
        "meta_classification_type": "U",
        "meta_norad_cat_id": 30092,
        "meta_element_set_no": 999,
        "meta_rev_at_epoch": 98911,
        "meta_bstar": 0.00053284863,
        "meta_mean_motion_dot": 1.669e-05,
        "meta_mean_motion_ddot": 0,
        "tle_line1": "1 30092U 99025QV  25358.02613671  .00001669  00000+0  53285-3 0  9995",
        "tle_line2": "2 30092  98.9231 177.7396 0082808 216.8578 272.7693 14.39177492989112"
      },
      "geometry": {
        "type": "Point",
        "coordinates": [
          -7.1307355095638005,
          -32.8714827338444
        ]
      }
    },
    {
      "type": "Feature",
      "properties": {
        "norad_id": 30093,
        "name": "FENGYUN 1C DEB",
        "group": "fengyun-1c-debris",
        "lat": -80.49454645603423,
        "lon": -14.775514778064053,
        "alt_km": 712.5819989931542,
        "timestamp": "2025-12-24T22:42:22.304997+00:00",
        "meta_object_name": "FENGYUN 1C DEB",
        "meta_object_id": "1999-025QW",
        "meta_epoch": "2025-12-24T03:56:06.506016",
        "meta_mean_motion": 14.43755798,
        "meta_eccentricity": 0.00694948,
        "meta_inclination": 98.8672,
        "meta_ra_of_asc_node": 233.2122,
        "meta_arg_of_pericenter": 303.5595,
        "meta_mean_anomaly": 220.6613,
        "meta_ephemeris_type": 0,
        "meta_classification_type": "U",
        "meta_norad_cat_id": 30093,
        "meta_element_set_no": 999,
        "meta_rev_at_epoch": 98968,
        "meta_bstar": 0.00091439003,
        "meta_mean_motion_dot": 3.153e-05,
        "meta_mean_motion_ddot": 0,
        "tle_line1": "1 30093U 99025QW  25358.16396419  .00003153  00000+0  91439-3 0  9992",
        "tle_line2": "2 30093  98.8672 233.2122 0069494 303.5595 220.6613 14.43755798989687"
      },
      "geometry": {
        "type": "Point",
        "coordinates": [
          -14.775514778064053,
          -80.49454645603423
        ]
      }
    },
    {
      "type": "Feature",
      "properties": {
        "norad_id": 30095,
        "name": "FENGYUN 1C DEB",
        "group": "fengyun-1c-debris",
        "lat": -80.05055869185023,
        "lon": -10.241134660123718,
        "alt_km": 521.2618313621615,
        "timestamp": "2025-12-24T22:42:22.305008+00:00",
        "meta_object_name": "FENGYUN 1C DEB",
        "meta_object_id": "1999-025QY",
        "meta_epoch": "2025-12-24T05:15:55.528416",
        "meta_mean_motion": 14.82418607,
        "meta_eccentricity": 0.01636468,
        "meta_inclination": 99.2213,
        "meta_ra_of_asc_node": 281.0854,
        "meta_arg_of_pericenter": 296.3193,
        "meta_mean_anomaly": 62.1287,
        "meta_ephemeris_type": 0,
        "meta_classification_type": "U",
        "meta_norad_cat_id": 30095,
        "meta_element_set_no": 999,
        "meta_rev_at_epoch": 99505,
        "meta_bstar": 0.0021765333,
        "meta_mean_motion_dot": 0.00022035,
        "meta_mean_motion_ddot": 0,
        "tle_line1": "1 30095U 99025QY  25358.21939269  .00022035  00000+0  21765-2 0  9990",
        "tle_line2": "2 30095  99.2213 281.0854 0163646 296.3193  62.1287 14.82418607995057"
      },
      "geometry": {
        "type": "Point",
        "coordinates": [
          -10.241134660123718,
          -80.05055869185023
        ]
      }
    },
    {
      "type": "Feature",
      "properties": {
        "norad_id": 30096,
        "name": "FENGYUN 1C DEB",
        "group": "fengyun-1c-debris",
        "lat": -47.006981076525655,
        "lon": -111.10239488472403,
        "alt_km": 743.6027369772646,
        "timestamp": "2025-12-24T22:42:22.305019+00:00",
        "meta_object_name": "FENGYUN 1C DEB",
        "meta_object_id": "1999-025QZ",
        "meta_epoch": "2025-12-24T04:52:26.319360",
        "meta_mean_motion": 14.31711207,
        "meta_eccentricity": 0.00796405,
        "meta_inclination": 99.1467,
        "meta_ra_of_asc_node": 78.0667,
        "meta_arg_of_pericenter": 199.1161,
        "meta_mean_anomaly": 160.7028,
        "meta_ephemeris_type": 0,
        "meta_classification_type": "U",
        "meta_norad_cat_id": 30096,
        "meta_element_set_no": 999,
        "meta_rev_at_epoch": 98710,
        "meta_bstar": 0.00031431987,
        "meta_mean_motion_dot": 8.2e-06,
        "meta_mean_motion_ddot": 0,
        "tle_line1": "1 30096U 99025QZ  25358.20308240  .00000820  00000+0  31432-3 0  9990",
        "tle_line2": "2 30096  99.1467  78.0667 0079640 199.1161 160.7028 14.31711207987100"
      },
      "geometry": {
        "type": "Point",
        "coordinates": [
          -111.10239488472403,
          -47.006981076525655
        ]
      }
    },
    {
      "type": "Feature",
      "properties": {
        "norad_id": 30099,
        "name": "FENGYUN 1C DEB",
        "group": "fengyun-1c-debris",
        "lat": -35.49262627179741,
        "lon": -115.20742152407452,
        "alt_km": 767.5962521740339,
        "timestamp": "2025-12-24T22:42:22.305029+00:00",
        "meta_object_name": "FENGYUN 1C DEB",
        "meta_object_id": "1999-025RC",
        "meta_epoch": "2025-12-24T05:09:15.977664",
        "meta_mean_motion": 14.25953543,
        "meta_eccentricity": 0.00616111,
        "meta_inclination": 98.5391,
        "meta_ra_of_asc_node": 70.2304,
        "meta_arg_of_pericenter": 210.878,
        "meta_mean_anomaly": 212.8238,
        "meta_ephemeris_type": 0,
        "meta_classification_type": "U",
        "meta_norad_cat_id": 30099,
        "meta_element_set_no": 999,
        "meta_rev_at_epoch": 98353,
        "meta_bstar": 0.00030095619,
        "meta_mean_motion_dot": 6.89e-06,
        "meta_mean_motion_ddot": 0,
        "tle_line1": "1 30099U 99025RC  25358.21476826  .00000689  00000+0  30096-3 0  9998",
        "tle_line2": "2 30099  98.5391  70.2304 0061611 210.8780 212.8238 14.25953543983530"
      },
      "geometry": {
        "type": "Point",
        "coordinates": [
          -115.20742152407452,
          -35.49262627179741
        ]
      }
    },
    {
      "type": "Feature",
      "properties": {
        "norad_id": 30102,
        "name": "FENGYUN 1C DEB",
        "group": "fengyun-1c-debris",
        "lat": -49.07313074319728,
        "lon": 176.33378579982633,
        "alt_km": 832.0172194741781,
        "timestamp": "2025-12-24T22:42:22.305040+00:00",
        "meta_object_name": "FENGYUN 1C DEB",
        "meta_object_id": "1999-025RF",
        "meta_epoch": "2025-12-23T23:55:06.621888",
        "meta_mean_motion": 14.22146431,
        "meta_eccentricity": 0.0141061,
        "meta_inclination": 98.379,
        "meta_ra_of_asc_node": 5.2182,
        "meta_arg_of_pericenter": 327.2852,
        "meta_mean_anomaly": 85.6922,
        "meta_ephemeris_type": 0,
        "meta_classification_type": "U",
        "meta_norad_cat_id": 30102,
        "meta_element_set_no": 999,
        "meta_rev_at_epoch": 98118,
        "meta_bstar": 0.00027895,
        "meta_mean_motion_dot": 6.42e-06,
        "meta_mean_motion_ddot": 0,
        "tle_line1": "1 30102U 99025RF  25357.99660442  .00000642  00000+0  27895-3 0  9998",
        "tle_line2": "2 30102  98.3790   5.2182 0141061 327.2852  85.6922 14.22146431981181"
      },
      "geometry": {
        "type": "Point",
        "coordinates": [
          176.33378579982633,
          -49.07313074319728
        ]
      }
    }
  ]
}